OBJECT_NAME,OBJECT_ID,EPOCH,MEAN_MOTION,ECCENTRICITY,INCLINATION,RA_OF_ASC_NODE,ARG_OF_PERICENTER,MEAN_ANOMALY,EPHEMERIS_TYPE,CLASSIFICATION_TYPE,NORAD_CAT_ID,ELEMENT_SET_NO,REV_AT_EPOCH,BSTAR,MEAN_MOTION_DOT,MEAN_MOTION_DDOT
FENGYUN 1C DEB,1999-025AWA,2026-06-08T18:12:44.766144,14.62603024,.02133159,98.0156,171.0307,169.7163,190.8509,0,U,30840,999,75732,.44175026E-3,.3061E-4,0
FENGYUN 1C DEB,1999-025AWD,2026-06-10T11:35:34.076256,14.52773512,.01463511,98.8254,247.5559,295.7234,62.8913,0,U,30843,999,1900,.10554663E-3,.438E-5,0
FENGYUN 1C DEB,1999-025AWF,2026-06-12T18:27:15.253056,13.76999772,.019359,98.3898,148.0259,137.2092,346.2373,0,U,30845,999,96748,.25679E-3,.256E-5,0
FENGYUN 1C DEB,1999-025AWG,2026-06-12T19:26:01.098816,14.42528092,.0053433,99.3257,358.7762,161.1094,215.1346,0,U,30846,999,545,.69385E-3,.2289E-4,0
FENGYUN 1C DEB,1999-025AWH,2026-06-11T16:59:43.766016,14.18342811,.00646717,98.7470,324.9585,168.4329,320.8864,0,U,30847,999,98619,.1493277E-2,.31E-4,0
FENGYUN 1C DEB,1999-025AWJ,2026-06-09T09:45:41.606784,14.35592458,.0042184,99.0517,8.9942,170.6996,189.4979,0,U,30848,999,99869,.70354645E-3,.2E-4,0
FENGYUN 1C DEB,1999-025AWK,2026-06-07T17:35:42.552096,14.19840168,.00486068,99.0322,227.3193,218.7798,269.4538,0,U,30849,999,98883,.13125488E-2,.2771E-4,0
FENGYUN 1C DEB,1999-025AWL,2026-06-11T13:30:13.040352,14.17650953,.0111755,98.3896,22.9996,34.7213,26.5600,0,U,30850,999,98359,.14464E-2,.309E-4,0
FENGYUN 1C DEB,1999-025AWN,2026-06-11T23:14:16.974528,14.10597850,.00581387,98.7208,180.4698,81.9724,278.8039,0,U,30852,999,98937,.37607116E-3,.639E-5,0
FENGYUN 1C DEB,1999-025AWS,2026-06-09T11:59:16.215072,14.52175054,.00812077,98.2020,345.4318,50.6294,4.5449,0,U,30856,999,99115,.27382589E-2,.11562E-3,0
FENGYUN 1C DEB,1999-025AWT,2026-06-10T18:32:30.117120,14.57844153,.00406219,98.9691,169.6444,109.6224,250.9364,0,U,30857,999,99341,.30542489E-2,.14117E-3,0
FENGYUN 1C DEB,1999-025AWU,2026-06-11T19:20:47.479776,14.18057009,.00283778,98.7746,223.5237,312.1765,119.2914,0,U,30858,999,99546,.25673692E-3,.484E-5,0
FENGYUN 1C DEB,1999-025AWV,2026-06-12T02:49:37.067232,14.52956359,.00301874,98.9158,229.1120,199.3080,160.6973,0,U,30859,999,99665,.18589207E-2,.7665E-4,0
FENGYUN 1C DEB,1999-025AWW,2026-06-11T04:26:45.027168,14.26697281,.0037924,98.8940,243.4449,30.6699,329.6687,0,U,30860,999,99088,.10182E-2,.2436E-4,0
FENGYUN 1C DEB,1999-025AWY,2026-06-10T01:38:44.024640,14.46800611,.00454243,98.9567,266.5188,348.6920,189.5672,0,U,30862,999,99309,.19029479E-2,.6937E-4,0
FENGYUN 1C DEB,1999-025AWZ,2026-06-11T15:39:27.862848,12.41121854,.08718069,99.1405,316.1903,228.6049,146.8996,0,U,30863,999,61984,.34346322E-2,.1762E-4,0
FENGYUN 1C DEB,1999-025AXD,2026-06-11T23:09:16.098624,14.29704254,.00489775,97.8719,57.3309,170.4445,314.1713,0,U,30867,999,99125,.12955983E-2,.333E-4,0
FENGYUN 1C DEB,1999-025AXE,2026-06-11T09:08:50.343936,14.11213169,.0136883,98.2398,30.9369,53.8385,123.0165,0,U,30868,999,99258,.12629E-3,.211E-5,0
FENGYUN 1C DEB,1999-025AXJ,2026-06-11T04:31:31.033632,14.40447565,.00416747,99.1710,232.4473,216.2978,217.2627,0,U,30872,999,318,.63744727E-3,.1997E-4,0
FENGYUN 1C DEB,1999-025AXK,2026-06-11T20:29:40.041888,14.19294408,.01096026,98.6155,163.2080,125.4621,235.6844,0,U,30873,999,99761,.13479716E-3,.259E-5,0
FENGYUN 1C DEB,1999-025AXL,2026-06-11T21:18:05.304096,14.19984970,.00403111,98.4693,190.9376,232.8048,251.2357,0,U,30874,999,99591,.31034828E-3,.623E-5,0
FENGYUN 1C DEB,1999-025AXN,2026-06-11T05:25:10.674336,13.99313792,.0069014,98.8259,145.6640,135.7017,241.6752,0,U,30876,999,98234,.19627858E-3,.249E-5,0
FENGYUN 1C DEB,1999-025AXQ,2026-06-09T12:22:13.513152,14.12249568,.00415501,98.7226,162.1728,143.6252,346.2303,0,U,30878,999,98890,.43988567E-3,.773E-5,0
FENGYUN 1C DEB,1999-025AXR,2026-06-07T22:42:52.185312,14.76739332,.01780289,99.3391,47.1314,94.1064,268.0510,0,U,30879,999,64547,.3888488E-2,.35492E-3,0
FENGYUN 1C DEB,1999-025AXS,2026-06-12T04:23:07.573056,14.26685738,.00192804,98.7811,240.5630,297.0737,62.8476,0,U,30880,999,99300,.98293591E-3,.2337E-4,0
FENGYUN 1C DEB,1999-025AXU,2026-06-10T23:03:52.765632,14.90732529,.01432076,97.9161,222.5848,167.1930,193.2989,0,U,30882,999,2331,.85711456E-3,.10184E-3,0
FENGYUN 1C DEB,1999-025AXV,2026-06-09T20:06:57.138048,14.14681957,.01132528,98.3375,191.4257,57.9963,121.2304,0,U,30883,999,99449,.1458389E-3,.259E-5,0
FENGYUN 1C DEB,1999-025AXW,2026-06-12T00:27:07.632576,14.77678510,.00636453,98.8888,179.8413,125.6699,235.0456,0,U,30884,999,1308,.11599106E-2,.8534E-4,0
FENGYUN 1C DEB,1999-025AXX,2026-06-10T09:00:11.607840,14.52434875,.00533928,99.0190,19.9063,39.7777,140.1787,0,U,30885,999,99582,.15227963E-2,.6277E-4,0
FENGYUN 1C DEB,1999-025AXY,2026-06-11T22:40:39.398016,14.23977677,.00322835,99.2029,69.2261,239.8045,119.9934,0,U,30886,999,98974,.96081159E-3,.2169E-4,0
