FENGYUN 1C DEB          
1 30840U 99025AWA 26159.75885146  .00003061  00000+0  44175-3 0  9990
2 30840  98.0156 171.0307 0213315 169.7163 190.8509 14.62603024757327
FENGYUN 1C DEB          
1 30843U 99025AWD 26161.48303329  .00000438  00000+0  10555-3 0  9994
2 30843  98.8254 247.5559 0146351 295.7234  62.8913 14.52773512 19001
FENGYUN 1C DEB          
1 30845U 99025AWF 26163.76892654  .00000256  00000+0  25679-3 0  9994
2 30845  98.3898 148.0259 0193590 137.2092 346.2373 13.76999772967489
FENGYUN 1C DEB          
1 30846U 99025AWG 26163.80973494  .00002289  00000+0  69385-3 0  9992
2 30846  99.3257 358.7762 0053433 161.1094 215.1346 14.42528092  5459
FENGYUN 1C DEB          
1 30847U 99025AWH 26162.70814544  .00003100  00000+0  14933-2 0  9992
2 30847  98.7470 324.9585 0064671 168.4329 320.8864 14.18342811986199
FENGYUN 1C DEB          
1 30848U 99025AWJ 26160.40673156  .00002000  00000+0  70355-3 0  9999
2 30848  99.0517   8.9942 0042184 170.6996 189.4979 14.35592458998699
FENGYUN 1C DEB          
1 30849U 99025AWK 26158.73313139  .00002771  00000+0  13125-2 0  9991
2 30849  99.0322 227.3193 0048606 218.7798 269.4538 14.19840168988839
FENGYUN 1C DEB          
1 30850U 99025AWL 26162.56265093  .00003090  00000+0  14464-2 0  9996
2 30850  98.3896  22.9996 0111755  34.7213  26.5600 14.17650953983592
FENGYUN 1C DEB          
1 30852U 99025AWN 26162.96825202  .00000639  00000+0  37607-3 0  9997
2 30852  98.7208 180.4698 0058138  81.9724 278.8039 14.10597850989379
FENGYUN 1C DEB          
1 30856U 99025AWS 26160.49949323  .00011562  00000+0  27383-2 0  9994
2 30856  98.2020 345.4318 0081207  50.6294   4.5449 14.52175054991152
FENGYUN 1C DEB          
1 30857U 99025AWT 26161.77257080  .00014117  00000+0  30542-2 0  9999
2 30857  98.9691 169.6444 0040621 109.6224 250.9364 14.57844153993415
FENGYUN 1C DEB          
1 30858U 99025AWU 26162.80610509  .00000484  00000+0  25674-3 0  9997
2 30858  98.7746 223.5237 0028377 312.1765 119.2914 14.18057009995468
FENGYUN 1C DEB          
1 30859U 99025AWV 26163.11779013  .00007665  00000+0  18589-2 0  9993
2 30859  98.9158 229.1120 0030187 199.3080 160.6973 14.52956359996659
FENGYUN 1C DEB          
1 30860U 99025AWW 26162.18524337  .00002436  00000+0  10182-2 0  9990
2 30860  98.8940 243.4449 0037924  30.6699 329.6687 14.26697281990886
FENGYUN 1C DEB          
1 30862U 99025AWY 26161.06856510  .00006937  00000+0  19029-2 0  9998
2 30862  98.9567 266.5188 0045424 348.6920 189.5672 14.46800611993091
FENGYUN 1C DEB          
1 30863U 99025AWZ 26162.65240582  .00001762  00000+0  34346-2 0  9991
2 30863  99.1405 316.1903 0871806 228.6049 146.8996 12.41121854619844
FENGYUN 1C DEB          
1 30867U 99025AXD 26162.96476966  .00003330  00000+0  12956-2 0  9992
2 30867  97.8719  57.3309 0048977 170.4445 314.1713 14.29704254991258
FENGYUN 1C DEB          
1 30868U 99025AXE 26162.38113824  .00000211  00000+0  12629-3 0  9993
2 30868  98.2398  30.9369 0136883  53.8385 123.0165 14.11213169992587
FENGYUN 1C DEB          
1 30872U 99025AXJ 26162.18855363  .00001997  00000+0  63745-3 0  9994
2 30872  99.1710 232.4473 0041674 216.2978 217.2627 14.40447565  3180
FENGYUN 1C DEB          
1 30873U 99025AXK 26162.85393567  .00000259  00000+0  13480-3 0  9993
2 30873  98.6155 163.2080 0109602 125.4621 235.6844 14.19294408997612
FENGYUN 1C DEB          
1 30874U 99025AXL 26162.88756139  .00000623  00000+0  31035-3 0  9996
2 30874  98.4693 190.9376 0040311 232.8048 251.2357 14.19984970995914
FENGYUN 1C DEB          
1 30876U 99025AXN 26162.22581799  .00000249  00000+0  19628-3 0  9992
2 30876  98.8259 145.6640 0069014 135.7017 241.6752 13.99313792982347
FENGYUN 1C DEB          
1 30878U 99025AXQ 26160.51543418  .00000773  00000+0  43989-3 0  9999
2 30878  98.7226 162.1728 0041550 143.6252 346.2303 14.12249568988904
FENGYUN 1C DEB          
1 30879U 99025AXR 26158.94643733  .00035492  00000+0  38885-2 0  9999
2 30879  99.3391  47.1314 0178028  94.1064 268.0510 14.76739332645476
FENGYUN 1C DEB          
1 30880U 99025AXS 26163.18272654  .00002337  00000+0  98294-3 0  9996
2 30880  98.7811 240.5630 0019280 297.0737  62.8476 14.26685738993004
FENGYUN 1C DEB          
1 30882U 99025AXU 26161.96102738  .00010184  00000+0  85711-3 0  9996
2 30882  97.9161 222.5848 0143207 167.1930 193.2989 14.90732529 23313
FENGYUN 1C DEB          
1 30883U 99025AXV 26160.83816132  .00000259  00000+0  14584-3 0  9994
2 30883  98.3375 191.4257 0113252  57.9963 121.2304 14.14681957994495
FENGYUN 1C DEB          
1 30884U 99025AXW 26163.01883834  .00008534  00000+0  11599-2 0  9997
2 30884  98.8888 179.8413 0063645 125.6699 235.0456 14.77678510 13082
FENGYUN 1C DEB          
1 30885U 99025AXX 26161.37513435  .00006277  00000+0  15228-2 0  9997
2 30885  99.0190  19.9063 0053392  39.7777 140.1787 14.52434875995828
FENGYUN 1C DEB          
1 30886U 99025AXY 26162.94490044  .00002169  00000+0  96081-3 0  9995
2 30886  99.2029  69.2261 0032283 239.8045 119.9934 14.23977677989749
